{"type": "FeatureCollection", "features": [ {"type": "Feature", "properties": {"norad_id": 58662, "name": "TIANMU-1 21", "group": "weather", "lat": -65.41420378012627, "lon": 113.2923675129841, "alt_km": 474.9477892341192, "timestamp": "2025-12-09T07:41:32.845364+00:00", "meta": {"OBJECT_NAME": "TIANMU-1 21", "OBJECT_ID": "2023-208C", "EPOCH": "2025-12-08T22:34:23.476800", "MEAN_MOTION": 15.31423162, "ECCENTRICITY": 0.0005914, "INCLINATION": 97.4377, "RA_OF_ASC_NODE": 96.3209, "ARG_OF_PERICENTER": 276.3841, "MEAN_ANOMALY": 83.6726, "EPHEMERIS_TYPE": 0, "CLASSIFICATION_TYPE": "U", "NORAD_CAT_ID": 58662, "ELEMENT_SET_NO": 999, "REV_AT_EPOCH": 10841, "BSTAR": 0.00045174542, "MEAN_MOTION_DOT": 0.00013647, "MEAN_MOTION_DDOT": 0}, "tle": {"line1": "1 58662U 23208C   25342.94054950  .00013647  00000+0  45175-3 0  9999", "line2": "2 58662  97.4377  96.3209 0005914 276.3841  83.6726 15.31423162108419"}}, "geometry": {"type": "Point", "coordinates": [113.2923675129841, -65.41420378012627]}}, {"type": "Feature", "properties": {"norad_id": 58663, "name": "TIANMU-1 22", "group": "weather", "lat": -80.54059021413977, "lon": -137.21679968864242, "alt_km": 489.1513869656874, "timestamp": "2025-12-09T07:41:32.845383+00:00", "meta": {"OBJECT_NAME": "TIANMU-1 22", "OBJECT_ID": "2023-208D", "EPOCH": "2025-12-08T22:40:41.804256", "MEAN_MOTION": 15.27502556, "ECCENTRICITY": 0.00028102, "INCLINATION": 97.4384, "RA_OF_ASC_NODE": 94.0507, "ARG_OF_PERICENTER": 305.8626, "MEAN_ANOMALY": 54.2352, "EPHEMERIS_TYPE": 0, "CLASSIFICATION_TYPE": "U", "NORAD_CAT_ID": 58663, "ELEMENT_SET_NO": 999, "REV_AT_EPOCH": 10825, "BSTAR": 0.00040405687, "MEAN_MOTION_DOT": 0.00010803, "MEAN_MOTION_DDOT": 0}, "tle": {"line1": "1 58663U 23208D   25342.94492829  .00010803  00000+0  40406-3 0  9994", "line2": "2 58663  97.4384  94.0507 0002810 305.8626  54.2352 15.27502556108256"}}, "geometry": {"type": "Point", "coordinates": [-137.21679968864242, -80.54059021413977]}}, {"type": "Feature", "properties": {"norad_id": 58700, "name": "TIANMU-1 15", "group": "weather", "lat": 68.14282612385392, "lon": 145.72838058068493, "alt_km": 486.9973102869444, "timestamp": "2025-12-09T07:41:32.845400+00:00", "meta": {"OBJECT_NAME": "TIANMU-1 15", "OBJECT_ID": "2024-004A", "EPOCH": "2025-12-08T23:30:47.801952", "MEAN_MOTION": 15.24601636, "ECCENTRICITY": 0.00053548, "INCLINATION": 97.463, "RA_OF_ASC_NODE": 164.4633, "ARG_OF_PERICENTER": 314.1636, "MEAN_ANOMALY": 45.916, "EPHEMERIS_TYPE": 0, "CLASSIFICATION_TYPE": "U", "NORAD_CAT_ID": 58700, "ELEMENT_SET_NO": 999, "REV_AT_EPOCH": 10677, "BSTAR": 0.00036645621, "MEAN_MOTION_DOT": 8.97e-05, "MEAN_MOTION_DDOT": 0}, "tle": {"line1": "1 58700U 24004A   25342.97971993  .00008970  00000+0  36646-3 0  9991", "line2": "2 58700  97.4630 164.4633 0005354 314.1636  45.9160 15.24601636106779"}}, "geometry": {"type": "Point", "coordinates": [145.72838058068493, 68.14282612385392]}}, {"type": "Feature", "properties": {"norad_id": 58701, "name": "TIANMU-1 16", "group": "weather", "lat": 25.43062542281383, "lon": -12.234130613885043, "alt_km": 494.96068658774493, "timestamp": "2025-12-09T07:41:32.845420+00:00", "meta": {"OBJECT_NAME": "TIANMU-1 16", "OBJECT_ID": "2024-004B", "EPOCH": "2025-12-08T23:08:26.047968", "MEAN_MOTION": 15.24353377, "ECCENTRICITY": 0.00046663, "INCLINATION": 97.4569, "RA_OF_ASC_NODE": 163.8407, "ARG_OF_PERICENTER": 312.7918, "MEAN_ANOMALY": 47.2927, "EPHEMERIS_TYPE": 0, "CLASSIFICATION_TYPE": "U", "NORAD_CAT_ID": 58701, "ELEMENT_SET_NO": 999, "REV_AT_EPOCH": 10677, "BSTAR": 0.00034755409, "MEAN_MOTION_DOT": 8.44e-05, "MEAN_MOTION_DDOT": 0}, "tle": {"line1": "1 58701U 24004B   25342.96419037  .00008440  00000+0  34755-3 0  9998", "line2": "2 58701  97.4569 163.8407 0004666 312.7918  47.2927 15.24353377106777"}}, "geometry": {"type": "Point", "coordinates": [-12.234130613885043, 25.43062542281383]}}, {"type": "Feature", "properties": {"norad_id": 58702, "name": "TIANMU-1 17", "group": "weather", "lat": -57.45285488395654, "lon": -27.244654136837816, "alt_km": 499.108812572189, "timestamp": "2025-12-09T07:41:32.845436+00:00", "meta": {"OBJECT_NAME": "TIANMU-1 17", "OBJECT_ID": "2024-004C", "EPOCH": "2025-12-08T22:46:24.606624", "MEAN_MOTION": 15.24400311, "ECCENTRICITY": 0.00038881, "INCLINATION": 97.4603, "RA_OF_ASC_NODE": 164.2335, "ARG_OF_PERICENTER": 316.8759, "MEAN_ANOMALY": 43.2174, "EPHEMERIS_TYPE": 0, "CLASSIFICATION_TYPE": "U", "NORAD_CAT_ID": 58702, "ELEMENT_SET_NO": 999, "REV_AT_EPOCH": 10676, "BSTAR": 0.0004336499, "MEAN_MOTION_DOT": 0.00010565, "MEAN_MOTION_DDOT": 0}, "tle": {"line1": "1 58702U 24004C   25342.94889591  .00010565  00000+0  43365-3 0  9991", "line2": "2 58702  97.4603 164.2335 0003888 316.8759  43.2174 15.24400311106765"}}, "geometry": {"type": "Point", "coordinates": [-27.244654136837816, -57.45285488395654]}}, {"type": "Feature", "properties": {"norad_id": 58703, "name": "TIANMU-1 18", "group": "weather", "lat": -29.963156271392943, "lon": 169.131436099649, "alt_km": 496.4681652237896, "timestamp": "2025-12-09T07:41:32.845455+00:00", "meta": {"OBJECT_NAME": "TIANMU-1 18", "OBJECT_ID": "2024-004D", "EPOCH": "2025-12-08T23:56:51.895968", "MEAN_MOTION": 15.2438746, "ECCENTRICITY": 0.00032508, "INCLINATION": 97.462, "RA_OF_ASC_NODE": 164.4767, "ARG_OF_PERICENTER": 317.7129, "MEAN_ANOMALY": 42.3857, "EPHEMERIS_TYPE": 0, "CLASSIFICATION_TYPE": "U", "NORAD_CAT_ID": 58703, "ELEMENT_SET_NO": 999, "REV_AT_EPOCH": 10677, "BSTAR": 0.00035627964, "MEAN_MOTION_DOT": 8.661e-05, "MEAN_MOTION_DDOT": 0}, "tle": {"line1": "1 58703U 24004D   25342.99782287  .00008661  00000+0  35628-3 0  9998", "line2": "2 58703  97.4620 164.4767 0003250 317.7129  42.3857 15.24387460106778"}}, "geometry": {"type": "Point", "coordinates": [169.131436099649, -29.963156271392943]}}, {"type": "Feature", "properties": {"norad_id": 58990, "name": "INSAT-3DS", "group": "weather", "lat": -0.01337927603638885, "lon": -84.220268402423, "alt_km": 35779.806466485476, "timestamp": "2025-12-09T07:41:32.845474+00:00", "meta": {"OBJECT_NAME": "INSAT-3DS", "OBJECT_ID": "2024-033A", "EPOCH": "2025-12-08T23:20:38.624928", "MEAN_MOTION": 1.0026959, "ECCENTRICITY": 0.00016622, "INCLINATION": 0.0157, "RA_OF_ASC_NODE": 80.0081, "ARG_OF_PERICENTER": 184.8154, "MEAN_ANOMALY": 245.3901, "EPHEMERIS_TYPE": 0, "CLASSIFICATION_TYPE": "U", "NORAD_CAT_ID": 58990, "ELEMENT_SET_NO": 999, "REV_AT_EPOCH": 4516, "BSTAR": 0, "MEAN_MOTION_DOT": -1.53e-06, "MEAN_MOTION_DDOT": 0}, "tle": {"line1": "1 58990U 24033A   25342.97266927 -.00000153  00000+0  00000+0 0  9995", "line2": "2 58990   0.0157  80.0081 0001662 184.8154 245.3901  1.00269590 45161"}}, "geometry": {"type": "Point", "coordinates": [-84.220268402423, -0.01337927603638885]}}, {"type": "Feature", "properties": {"norad_id": 59051, "name": "METEOR-M2 4", "group": "weather", "lat": -41.205742659873685, "lon": -52.03350906759982, "alt_km": 820.409524028707, "timestamp": "2025-12-09T07:41:32.845494+00:00", "meta": {"OBJECT_NAME": "METEOR-M2 4", "OBJECT_ID": "2024-039A", "EPOCH": "2025-12-08T23:26:49.538400", "MEAN_MOTION": 14.22400291, "ECCENTRICITY": 0.00072521, "INCLINATION": 98.6761, "RA_OF_ASC_NODE": 299.945, "ARG_OF_PERICENTER": 9.26, "MEAN_ANOMALY": 350.871, "EPHEMERIS_TYPE": 0, "CLASSIFICATION_TYPE": "U", "NORAD_CAT_ID": 59051, "ELEMENT_SET_NO": 999, "REV_AT_EPOCH": 9222, "BSTAR": 5.6144577e-05, "MEAN_MOTION_DOT": 8.1e-07, "MEAN_MOTION_DDOT": 0}, "tle": {"line1": "1 59051U 24039A   25342.97696225  .00000081  00000+0  56145-4 0  9993", "line2": "2 59051  98.6761 299.9450 0007252   9.2600 350.8710 14.22400291 92224"}}, "geometry": {"type": "Point", "coordinates": [-52.03350906759982, -41.205742659873685]}}, {"type": "Feature", "properties": {"norad_id": 60133, "name": "GOES 19", "group": "weather", "lat": -0.007074681000788287, "lon": 118.51576559953874, "alt_km": 35791.885496121504, "timestamp": "2025-12-09T07:41:32.845513+00:00", "meta": {"OBJECT_NAME": "GOES 19", "OBJECT_ID": "2024-119A", "EPOCH": "2025-12-08T21:48:24.352416", "MEAN_MOTION": 1.00271448, "ECCENTRICITY": 0.00013499, "INCLINATION": 0.0087, "RA_OF_ASC_NODE": 198.1567, "ARG_OF_PERICENTER": 105.4692, "MEAN_ANOMALY": 26.2013, "EPHEMERIS_TYPE": 0, "CLASSIFICATION_TYPE": "U", "NORAD_CAT_ID": 60133, "ELEMENT_SET_NO": 999, "REV_AT_EPOCH": 505, "BSTAR": 0, "MEAN_MOTION_DOT": -2.46e-06, "MEAN_MOTION_DDOT": 0}, "tle": {"line1": "1 60133U 24119A   25342.90861519 -.00000246  00000+0  00000+0 0  9996", "line2": "2 60133   0.0087 198.1567 0001349 105.4692  26.2013  1.00271448  5052"}}, "geometry": {"type": "Point", "coordinates": [118.51576559953874, -0.007074681000788287]}}, {"type": "Feature", "properties": {"norad_id": 65815, "name": "FENGYUN 3H", "group": "weather", "lat": -47.33601401692438, "lon": 93.46892061347558, "alt_km": 832.8083815329655, "timestamp": "2025-12-09T07:41:32.845533+00:00", "meta": {"OBJECT_NAME": "FENGYUN 3H", "OBJECT_ID": "2025-219A", "EPOCH": "2025-12-08T22:09:57.709440", "MEAN_MOTION": 14.1990289, "ECCENTRICITY": 6.061e-05, "INCLINATION": 98.658, "RA_OF_ASC_NODE": 282.597, "ARG_OF_PERICENTER": 83.8766, "MEAN_ANOMALY": 276.248, "EPHEMERIS_TYPE": 0, "CLASSIFICATION_TYPE": "U", "NORAD_CAT_ID": 65815, "ELEMENT_SET_NO": 999, "REV_AT_EPOCH": 1038, "BSTAR": 9.9814009e-05, "MEAN_MOTION_DOT": 1.69e-06, "MEAN_MOTION_DDOT": 0}, "tle": {"line1": "1 65815U 25219A   25342.92358460  .00000169  00000+0  99814-4 0  9997", "line2": "2 65815  98.6580 282.5970 0000606  83.8766 276.2480 14.19902890 10380"}}, "geometry": {"type": "Point", "coordinates": [93.46892061347558, -47.33601401692438]}}]}